NORAD_CAT_ID,OBJECT_NAME,OBJECT_TYPE,EPOCH,MEAN_MOTION,ECCENTRICITY,INCLINATION,RA_OF_ASC_NODE,ARG_OF_PERICENTER,MEAN_ANOMALY,BSTAR,MEAN_MOTION_DOT,MEAN_MOTION_DDOT,TLE_LINE0,TLE_LINE1,TLE_LINE2,SEMIMAJOR_AXIS,PERIOD,APOGEE,PERIGEE,DECAYED
55422.0,STARLINK-5006,PAYLOAD,2024-02-04 11:23:31,14.98331601,0.0002729,69.9998,211.168,269.268,90.8167,2.6778e-05,2.27e-06,0.0,0 STARLINK-5006,1 55422U 23014AH  24035.47467044  .00000227  00000-0  26778-4 0  9993,2 55422  69.9998 211.1680 0002729 269.2680  90.8167 14.98331601 56156,6950.188,96.107,573.95,570.156,0.0
55422.0,STARLINK-5006,PAYLOAD,2024-02-04 14:35:47,14.98331677,0.0002745,69.9998,210.8314,268.4193,91.6652,2.6031e-05,2.18e-06,0.0,0 STARLINK-5006,1 55422U 23014AH  24035.60819015  .00000218  00000-0  26031-4 0  9999,2 55422  69.9998 210.8314 0002745 268.4193  91.6652 14.98331677 57112,6950.188,96.107,573.961,570.145,0.0
55422.0,STARLINK-5006,PAYLOAD,2024-02-04 21:00:19,14.9833271,0.000274,69.9999,210.1582,268.8544,91.2301,3.6835e-05,3.47e-06,0.0,0 STARLINK-5006,1 55422U 23014AH  24035.87522884  .00000347  00000-0  36835-4 0  9999,2 55422  69.9999 210.1582 0002740 268.8544  91.2301 14.98332710 57152,6950.185,96.107,573.954,570.145,0.0
55422.0,STARLINK-5006,PAYLOAD,2024-02-05 11:25:32,14.9832815,0.000271,70.0002,208.6439,268.2285,91.8564,3.4646e-05,3.2e-06,0.0,0 STARLINK-5006,1 55422U 23014AH  24036.47607161  .00000320  00000-0  34646-4 0  9997,2 55422  70.0002 208.6439 0002710 268.2285  91.8564 14.98328150 56302,6950.199,96.107,573.947,570.18,0.0
55422.0,STARLINK-5006,PAYLOAD,2024-02-05 14:37:48,14.98328156,0.0002726,70.0002,208.3072,267.648,92.4367,3.1586e-05,2.84e-06,0.0,0 STARLINK-5006,1 55422U 23014AH  24036.60959171  .00000284  00000-0  31586-4 0  9992,2 55422  70.0002 208.3072 0002726 267.6480  92.4367 14.98328156 57269,6950.199,96.107,573.958,570.169,0.0
55422.0,STARLINK-5006,PAYLOAD,2024-02-05 21:02:20,14.98328928,0.0002725,70.0002,207.6338,267.4689,92.6158,3.6861e-05,3.47e-06,0.0,0 STARLINK-5006,1 55422U 23014AH  24036.87663125  .00000347  00000-0  36861-4 0  9993,2 55422  70.0002 207.6338 0002725 267.4689  92.6158 14.98328928 57306,6950.196,96.107,573.955,570.167,0.0
55422.0,STARLINK-5006,PAYLOAD,2024-02-06 11:27:33,14.98334329,0.0002745,70.0002,206.1189,267.9015,92.183,2.0678e-05,1.54e-06,0.0,0 STARLINK-5006,1 55422U 23014AH  24037.47746770  .00000154  00000-0  20678-4 0  9993,2 55422  70.0002 206.1189 0002745 267.9015  92.1830 14.98334329 56453,6950.18,96.107,573.952,570.137,0.0
55422.0,STARLINK-5006,PAYLOAD,2024-02-06 14:39:49,14.98333919,0.0002761,70.0002,205.7824,268.2901,91.7941,1.5061e-05,8.7e-07,0.0,0 STARLINK-5006,1 55422U 23014AH  24037.61098773  .00000087  00000-0  15061-4 0  9997,2 55422  70.0002 205.7824 0002761 268.2901  91.7941 14.98333919 57419,6950.181,96.107,573.965,570.127,0.0
55422.0,STARLINK-5006,PAYLOAD,2024-02-06 21:04:21,14.98335526,0.0002731,70.0004,205.1095,267.6329,92.4517,3.3238e-05,3.04e-06,0.0,0 STARLINK-5006,1 55422U 23014AH  24037.87802558  .00000304  00000-0  33238-4 0  9997,2 55422  70.0004 205.1095 0002731 267.6329  92.4517 14.98335526 57456,6950.176,96.107,573.939,570.143,0.0
55422.0,STARLINK-5006,PAYLOAD,2024-02-07 11:29:34,14.98332049,0.0002708,70.0005,203.5951,264.8617,95.2233,3.4803e-05,3.22e-06,0.0,0 STARLINK-5006,1 55422U 23014AH  24038.47886624  .00000322  00000-0  34803-4 0  9999,2 55422  70.0005 203.5951 0002708 264.8617  95.2233 14.98332049 56602,6950.187,96.107,573.934,570.169,0.0
55422.0,STARLINK-5006,PAYLOAD,2024-02-07 14:41:50,14.98331892,0.0002721,70.0005,203.2584,264.2128,95.8721,3.0865e-05,2.75e-06,0.0,0 STARLINK-5006,1 55422U 23014AH  24038.61238620  .00000275  00000-0  30865-4 0  9993,2 55422  70.0005 203.2584 0002721 264.2128  95.8721 14.98331892 57566,6950.187,96.107,573.943,570.161,0.0
55422.0,STARLINK-5006,PAYLOAD,2024-02-07 21:06:22,14.98332413,0.0002748,70.0005,202.5847,266.241,93.8435,3.3476e-05,3.07e-06,0.0,0 STARLINK-5006,1 55422U 23014AH  24038.87942549  .00000307  00000-0  33476-4 0  9990,2 55422  70.0005 202.5847 0002748 266.2410  93.8435 14.98332413 57600,6950.185,96.107,573.96,570.141,0.0
55422.0,STARLINK-5006,PAYLOAD,2024-02-08 03:30:55,14.98322959,0.0002604,70.0009,201.9112,265.2644,94.8217,6.0322e-05,6.27e-06,0.0,0 STARLINK-5006,1 55422U 23014AH  24039.14647145  .00000627  00000-0  60322-4 0  9990,2 55422  70.0009 201.9112 0002604 265.2644  94.8217 14.98322959 56704,6950.215,96.107,573.89,570.27,0.0
55422.0,STARLINK-5006,PAYLOAD,2024-02-08 14:43:51,14.98356162,0.0002523,70.0006,200.7326,273.5118,86.5752,-0.0005118,-6.198e-05,0.0,0 STARLINK-5006,1 55422U 23014AH  24039.61378718 -.00006198  00000-0 -51180-3 0  9991,2 55422  70.0006 200.7326 0002523 273.5118  86.5752 14.98356162 57710,6950.112,96.105,573.731,570.223,0.0
55422.0,STARLINK-5006,PAYLOAD,2024-02-08 19:32:15,14.98328396,0.0002774,70.0006,200.2276,271.5276,88.5566,-2.6135e-05,-4.05e-06,0.0,0 STARLINK-5006,1 55422U 23014AH  24039.81406991 -.00000405  00000-0 -26135-4 0  9996,2 55422  70.0006 200.2276 0002774 271.5276  88.5566 14.98328396 57746,6950.198,96.107,573.991,570.135,0.0
55422.0,STARLINK-5006,PAYLOAD,2024-02-09 11:33:35,14.98331259,0.0002785,70.0007,198.5446,265.365,94.7191,5.5007e-05,5.63e-06,0.0,0 STARLINK-5006,1 55422U 23014AH  24040.48166462  .00000563  00000-0  55007-4 0  9990,2 55422  70.0007 198.5446 0002785 265.3650  94.7191 14.98331259 56906,6950.189,96.107,573.99,570.118,0.0
55422.0,STARLINK-5006,PAYLOAD,2024-02-09 14:45:51,14.98331227,0.0002785,70.0007,198.208,268.1435,91.9405,5.6485e-05,5.81e-06,0.0,0 STARLINK-5006,1 55422U 23014AH  24040.61518480  .00000581  00000-0  56485-4 0  9997,2 55422  70.0007 198.2080 0002785 268.1435  91.9405 14.98331227 57867,6950.189,96.107,573.99,570.118,0.0
55422.0,STARLINK-5006,PAYLOAD,2024-02-10 11:35:37,14.98326953,0.0002766,70.0007,196.0204,263.9207,96.1637,1.9777e-05,1.43e-06,0.0,0 STARLINK-5006,1 55422U 23014AH  24041.48306790  .00000143  00000-0  19777-4 0  9999,2 55422  70.0007 196.0204 0002766 263.9207  96.1637 14.98326953 57055,6950.202,96.107,573.99,570.145,0.0
55422.0,STARLINK-5006,PAYLOAD,2024-02-10 13:11:45,14.98326753,0.0002775,70.0007,195.8521,263.9343,96.15,1.8165e-05,1.24e-06,0.0,0 STARLINK-5006,1 55422U 23014AH  24041.54982826  .00000124  00000-0  18165-4 0  9995,2 55422  70.0007 195.8521 0002775 263.9343  96.1500 14.98326753 58008,6950.203,96.107,573.997,570.139,0.0
55422.0,STARLINK-5006,PAYLOAD,2024-02-10 19:36:17,14.9832541,0.0002664,70.0013,195.1801,259.5165,100.5694,3.5013e-05,3.25e-06,0.0,0 STARLINK-5006,1 55422U 23014AH  24041.81686918  .00000325  00000-0  35013-4 0  9992,2 55422  70.0013 195.1801 0002664 259.5165 100.5694 14.98325410 58046,6950.207,96.107,573.924,570.221,0.0
55422.0,STARLINK-5006,PAYLOAD,2024-02-11 11:37:37,14.98335347,0.0002717,70.0014,193.4982,256.2118,103.8738,1.2047e-05,5.1e-07,0.0,0 STARLINK-5006,1 55422U 23014AH  24042.48446284  .00000051  00000-0  12047-4 0  9994,2 55422  70.0014 193.4982 0002717 256.2118 103.8738 14.98335347 57201,6950.176,96.107,573.93,570.153,0.0
55422.0,STARLINK-5006,PAYLOAD,2024-02-11 14:49:53,14.98335186,0.0002716,70.0015,193.1616,255.2602,104.8256,1.1854e-05,4.9e-07,0.0,0 STARLINK-5006,1 55422U 23014AH  24042.61798255  .00000049  00000-0  11854-4 0  9999,2 55422  70.0015 193.1616 0002716 255.2602 104.8256 14.98335186 58162,6950.177,96.107,573.93,570.154,0.0
55422.0,STARLINK-5006,PAYLOAD,2024-02-11 19:38:17,14.98335554,0.0002737,70.0015,192.6568,257.8693,102.2159,1.373e-05,7.1e-07,0.0,0 STARLINK-5006,1 55422U 23014AH  24042.81826179  .00000071  00000-0  13730-4 0  9998,2 55422  70.0015 192.6568 0002737 257.8693 102.2159 14.98335554 58199,6950.176,96.107,573.943,570.138,0.0
55422.0,STARLINK-5006,PAYLOAD,2024-02-12 11:39:38,14.98328267,0.0002772,70.0016,190.9733,261.3001,98.7844,3.6354e-05,3.41e-06,0.0,0 STARLINK-5006,1 55422U 23014AH  24043.48586550  .00000341  00000-0  36354-4 0  9995,2 55422  70.0016 190.9733 0002772 261.3001  98.7844 14.98328267 57357,6950.198,96.107,573.99,570.137,0.0
55422.0,STARLINK-5006,PAYLOAD,2024-02-12 13:15:46,14.98328138,0.0002778,70.0016,190.805,261.2745,98.8099,3.3967e-05,3.12e-06,0.0,0 STARLINK-5006,1 55422U 23014AH  24043.55262575  .00000312  00000-0  33967-4 0  9996,2 55422  70.0016 190.8050 0002778 261.2745  98.8099 14.98328138 58304,6950.199,96.107,573.994,570.133,0.0
55422.0,STARLINK-5006,PAYLOAD,2024-02-12 19:40:19,14.98329109,0.0002776,70.0016,190.1319,261.5439,98.5405,4.1598e-05,4.03e-06,0.0,0 STARLINK-5006,1 55422U 23014AH  24043.81966520  .00000403  00000-0  41598-4 0  9996,2 55422  70.0016 190.1319 0002776 261.5439  98.5405 14.98329109 58347,6950.196,96.107,573.99,570.131,0.0
55422.0,STARLINK-5006,PAYLOAD,2024-02-13 11:41:39,14.98330118,0.0002645,70.0021,188.4488,260.1251,99.961,-1.2782e-05,-2.45e-06,0.0,0 STARLINK-5006,1 55422U 23014AH  24044.48726654 -.00000245  00000-0 -12782-4 0  9991,2 55422  70.0021 188.4488 0002645 260.1251  99.9610 14.98330118 57504,6950.193,96.107,573.896,570.219,0.0
55422.0,STARLINK-5006,PAYLOAD,2024-02-13 13:17:47,14.98330374,0.0002644,70.0022,188.2806,260.1451,99.941,-8.24e-06,-1.91e-06,0.0,0 STARLINK-5006,1 55422U 23014AH  24044.55402642 -.00000191  00000-0 -82400-5 0  9992,2 55422  70.0022 188.2806 0002644 260.1451  99.9410 14.98330374 58455,6950.192,96.107,573.894,570.219,0.0
55422.0,STARLINK-5006,PAYLOAD,2024-02-13 19:42:20,14.98331353,0.0002653,70.0019,187.6062,261.1867,98.8991,2.6405e-06,-6.1e-07,0.0,0 STARLINK-5006,1 55422U 23014AH  24044.82106556 -.00000061  00000-0  26405-5 0  9995,2 55422  70.0019 187.6062 0002653 261.1867  98.8991 14.98331353 58494,6950.189,96.107,573.898,570.21,0.0
55422.0,STARLINK-5006,PAYLOAD,2024-02-14 11:43:40,14.98329518,0.0002678,70.0019,185.9228,263.2762,96.8093,3.7758e-05,3.58e-06,0.0,0 STARLINK-5006,1 55422U 23014AH  24045.48866547  .00000358  00000-0  37758-4 0  9991,2 55422  70.0019 185.9228 0002678 263.2762  96.8093 14.98329518 57651,6950.194,96.107,573.921,570.198,0.0
